[{"OBJECT_NAME":"DONGPO 08","OBJECT_ID":"2022-167E","EPOCH":"2026-03-09T22:57:52.742880","MEAN_MOTION":15.31542505,"ECCENTRICITY":0.00092155,"INCLINATION":97.6764,"RA_OF_ASC_NODE":233.3854,"ARG_OF_PERICENTER":153.9158,"MEAN_ANOMALY":206.2548,"EPHEMERIS_TYPE":0,"CLASSIFICATION_TYPE":"U","NORAD_CAT_ID":54686,"ELEMENT_SET_NO":999,"REV_AT_EPOCH":18012,"BSTAR":0.0004734784,"MEAN_MOTION_DOT":0.0001437,"MEAN_MOTION_DDOT":0},{"OBJECT_NAME":"STARLINK-31316","OBJECT_ID":"2024-041S","EPOCH":"2026-03-09T19:46:57.155232","MEAN_MOTION":15.27573257,"ECCENTRICITY":0.00011894,"INCLINATION":42.9979,"RA_OF_ASC_NODE":263.1239,"ARG_OF_PERICENTER":269.8888,"MEAN_ANOMALY":90.1827,"EPHEMERIS_TYPE":0,"CLASSIFICATION_TYPE":"U","NORAD_CAT_ID":59090,"ELEMENT_SET_NO":999,"REV_AT_EPOCH":11477,"BSTAR":-2.0342361e-5,"MEAN_MOTION_DOT":-8.22e-6,"MEAN_MOTION_DDOT":0}]
